{"fetched_at":"2026-03-29T16:36:15Z","count":15609,"tles":[{"name":"STARLINK-33844","line1":"1 63768U 25089T   26087.86853524  .00033793  00000+0  12309-2 0  9999","line2":"2 63768  43.0009 296.6689 0001487 266.6097  93.4585 15.27606209 51895","category":"Starlink"}]}