{
  "norad_id": 63768,
  "name": "STARLINK-33844",
  "history": [
    {
      "epoch": "2026-03-28T20:50:41.444736",
      "apogee_km": 483.9910019120143,
      "perigee_km": 481.9502340621193,
      "latitude_deg": 21.81539271547516,
      "longitude_deg": -79.82061696005985,
      "semi_major_axis_km": 6861.107617987066,
      "eccentricity": 0.00014872,
      "inclination_deg": 43.0009,
      "raan_deg": 296.6689,
      "arg_perigee_deg": 266.6097,
      "mean_anomaly_deg": 93.4585,
      "mean_motion_rev_day": 15.27606209
    }
  ]
}